NUSAT-43 (R DIENG-KUNTZ)
1 56968U 23084AN  26067.91360678  .00168767  00000+0  11289-2 0  9999
2 56968  97.4369 210.0765 0005970 240.2474 119.8197 15.74780826153440
STARLINK-35934          
1 67542U 26014L   26068.67293798  .00172393  00000+0  11326-2 0  9999
2 67542  97.2843 313.6495 0001683  34.4185 325.7189 15.75208634  8568
